[ {"OBJECT_NAME": "0 STARLINK-33859", "OBJECT_ID": "63640", "TLE_LINE1": "1 63640U 25083G   26203.65505870  .00009574  00000-0  35682-3 0  9998", "TLE_LINE2": "2 63640  43.0013 323.3820 0001680 259.4517 100.6146 15.27596308 70709"}, {"OBJECT_NAME": "0 STARLINK-33826", "OBJECT_ID": "63641", "TLE_LINE1": "1 63641U 25083H   26203.61522651  .00018659  00000-0  68541-3 0  9995", "TLE_LINE2": "2 63641  43.0019 323.0846 0001686 267.4922  92.5736 15.27601799 70701"}, {"OBJECT_NAME": "0 STARLINK-33836", "OBJECT_ID": "63642", "TLE_LINE1": "1 63642U 25083J   26203.71144608  .00025040  00000-0  91555-3 0  9992", "TLE_LINE2": "2 63642  43.0017 322.9398 0002522 228.6349 131.4286 15.27607711 70716"}, {"OBJECT_NAME": "0 STARLINK-33558", "OBJECT_ID": "63643", "TLE_LINE1": "1 63643U 25083K   26203.67161880  .00013887  00000-0  51293-3 0  9990", "TLE_LINE2": "2 63643  42.9989 322.6387 0001646 273.9417  86.1247 15.27597120 70718"}, {"OBJECT_NAME": "0 STARLINK-33852", "OBJECT_ID": "63644", "TLE_LINE1": "1 63644U 25083L   26203.77555057  .00013382  00000-0  49454-3 0  9991", "TLE_LINE2": "2 63644  43.0025 322.5648 0001755 273.5764  86.4887 15.27605560 70758"}, {"OBJECT_NAME": "0 STARLINK-33835", "OBJECT_ID": "63645", "TLE_LINE1": "1 63645U 25083M   26203.69731777  .00015603  00000-0  57513-3 0  9991", "TLE_LINE2": "2 63645  42.9996 322.8311 0001295 269.9382  90.1321 15.27591343 70745"}, {"OBJECT_NAME": "0 STARLINK-33661", "OBJECT_ID": "63646", "TLE_LINE1": "1 63646U 25083N   26203.61779559  .00010140  00000-0  37735-3 0  9999", "TLE_LINE2": "2 63646  43.0009 323.0935 0001356 283.2361  76.8340 15.27593837 70733"}, {"OBJECT_NAME": "0 STARLINK-33729", "OBJECT_ID": "63647", "TLE_LINE1": "1 63647U 25083P   26203.71659315  .00021078  00000-0  77250-3 0  9996", "TLE_LINE2": "2 63647  43.0039 322.9809 0002059 263.3091  96.7527 15.27613203 70711"}, {"OBJECT_NAME": "0 STARLINK-33717", "OBJECT_ID": "63648", "TLE_LINE1": "1 63648U 25083Q   26203.60880044  .00010313  00000-0  38356-3 0  9994", "TLE_LINE2": "2 63648  43.0010 323.0270 0001403 267.4333  92.6358 15.27597640 70703"}, {"OBJECT_NAME": "0 STARLINK-33684", "OBJECT_ID": "63649", "TLE_LINE1": "1 63649U 25083R   26203.73185908  .00019120  00000-0  70184-3 0  9996", "TLE_LINE2": "2 63649  43.0022 322.2308 0001983 267.0605  93.0020 15.27611185 70725"}, {"OBJECT_NAME": "0 STARLINK-33704", "OBJECT_ID": "63650", "TLE_LINE1": "1 63650U 25083S   26203.68831856  .00015645  00000-0  57635-3 0  9996", "TLE_LINE2": "2 63650  43.0018 322.7637 0001767 272.5316  87.5333 15.27606870 70711"}, {"OBJECT_NAME": "0 STARLINK-33705", "OBJECT_ID": "63651", "TLE_LINE1": "1 63651U 25083T   26203.74984848  .00023442  00000-0  85798-3 0  9999", "TLE_LINE2": "2 63651  43.0000 322.3626 0001510 260.6109  99.4572 15.27606480 70759"}, {"OBJECT_NAME": "0 STARLINK-33663", "OBJECT_ID": "63652", "TLE_LINE1": "1 63652U 25083U   26203.67675560  .00025078  00000-0  91695-3 0  9990", "TLE_LINE2": "2 63652  43.0020 322.6708 0001692 277.1455  82.9204 15.27607964 70717"}, {"OBJECT_NAME": "0 STARLINK-33866", "OBJECT_ID": "63653", "TLE_LINE1": "1 63653U 25083V   26203.64221188  .00021997  00000-0  80584-3 0  9992", "TLE_LINE2": "2 63653  42.9995 323.2784 0001804 274.5391  85.5255 15.27605650 70730"}, {"OBJECT_NAME": "0 STARLINK-33849", "OBJECT_ID": "63654", "TLE_LINE1": "1 63654U 25083W   26203.31272066 -.00034814  00000-0 -12640-2 0  9999", "TLE_LINE2": "2 63654  43.0061 325.1010 0001486 240.0580 120.0124 15.27515910 70654"}, {"OBJECT_NAME": "0 STARLINK-33873", "OBJECT_ID": "63655", "TLE_LINE1": "1 63655U 25083X   26203.64093466  .00018054  00000-0  66378-3 0  9995", "TLE_LINE2": "2 63655  43.0010 323.2680 0001803 282.3198  77.7452 15.27590174 70734"}, {"OBJECT_NAME": "0 STARLINK-33772", "OBJECT_ID": "63656", "TLE_LINE1": "1 63656U 25083Y   26203.62421915  .00026543  00000-0  96943-3 0  9991", "TLE_LINE2": "2 63656  43.0009 323.1392 0001212 261.8992  98.1723 15.27620044 70738"}, {"OBJECT_NAME": "0 STARLINK-33789", "OBJECT_ID": "63657", "TLE_LINE1": "1 63657U 25083Z   26203.35496549  .00021885  00000-0  80199-3 0  9997", "TLE_LINE2": "2 63657  43.0006 324.5610 0001319 262.4156  97.6546 15.27599521 70698"}, {"OBJECT_NAME": "0 STARLINK-33822", "OBJECT_ID": "63658", "TLE_LINE1": "1 63658U 25083AA  26203.70374824  .00016059  00000-0  59152-3 0  9990", "TLE_LINE2": "2 63658  42.9966 322.8784 0000465 348.7474  11.3367 15.27597105 70743"}, {"OBJECT_NAME": "0 STARLINK-33771", "OBJECT_ID": "63659", "TLE_LINE1": "1 63659U 25083AB  26203.68142622  .00013185  00000-0  48759-3 0  9995", "TLE_LINE2": "2 63659  43.0013 326.2449 0001674 277.0256  83.0406 15.27594075 70709"}, {"OBJECT_NAME": "0 STARLINK-33810", "OBJECT_ID": "63660", "TLE_LINE1": "1 63660U 25083AC  26203.73829049  .00022021  00000-0  80676-3 0  9991", "TLE_LINE2": "2 63660  42.9987 322.2762 0001022 300.6187  59.4564 15.27603653 70756"}, {"OBJECT_NAME": "0 STARLINK-33823", "OBJECT_ID": "63661", "TLE_LINE1": "1 63661U 25083AD  26203.69987129  .00016926  00000-0  62275-3 0  9993", "TLE_LINE2": "2 63661  43.0135 322.8390 0004249 244.2460 115.7954 15.27597995 70747"}, {"OBJECT_NAME": "0 STARLINK-11651", "OBJECT_ID": "63664", "TLE_LINE1": "1 63664U 25085A   26202.96366917  .00160904  00000-0  12280-2 0  9999", "TLE_LINE2": "2 63664  42.9969 188.7032 0000407 146.2870 213.8024 15.70942607 71373"}, {"OBJECT_NAME": "0 STARLINK-11672", "OBJECT_ID": "63665", "TLE_LINE1": "1 63665U 25085B   26203.91210416  .00200406  00000-0  15094-2 0  9996", "TLE_LINE2": "2 63665  42.9990 182.9108 0003708 216.3914 143.6702 15.71126157 72125"}, {"OBJECT_NAME": "0 STARLINK-11664", "OBJECT_ID": "63666", "TLE_LINE1": "1 63666U 25085C   26146.44249576  .09495563  88137-5  32906-2 0  9992", "TLE_LINE2": "2 63666  42.9801 160.3887 0012796 151.7638 208.3945 16.24111503 62588"}, {"OBJECT_NAME": "0 STARLINK-11666", "OBJECT_ID": "63667", "TLE_LINE1": "1 63667U 25085D   26202.25376534  .00122504  00000-0  94405-3 0  9994", "TLE_LINE2": "2 63667  43.0017 193.7264 0003627 270.8908  89.1544 15.70838123 71152"}, {"OBJECT_NAME": "0 STARLINK-11663", "OBJECT_ID": "63668", "TLE_LINE1": "1 63668U 25085E   26203.90162045  .00142248  00000-0  10913-2 0  9996", "TLE_LINE2": "2 63668  42.9989 183.7201 0001264 293.0206  67.0528 15.70882600 71518"}, {"OBJECT_NAME": "0 STARLINK-11595", "OBJECT_ID": "63669", "TLE_LINE1": "1 63669U 25085F   26203.89630647  .00216643  00000-0  16372-2 0  9999", "TLE_LINE2": "2 63669  42.9960 183.6799 0003154 185.0864 174.9972 15.70996554 72155"}, {"OBJECT_NAME": "0 STARLINK-11599", "OBJECT_ID": "63670", "TLE_LINE1": "1 63670U 25085G   26203.89099729  .00245896  00000-0  18434-2 0  9994", "TLE_LINE2": "2 63670  42.9992 183.6343 0003048 232.7426 127.3164 15.71099251 71505"}, {"OBJECT_NAME": "0 STARLINK-11603", "OBJECT_ID": "63671", "TLE_LINE1": "1 63671U 25085H   26203.37702105  .00157131  00000-0  12026-2 0  9992", "TLE_LINE2": "2 63671  43.0004 186.6578 0001432 290.8941  69.1774 15.70888616 71428"}, {"OBJECT_NAME": "0 STARLINK-11644", "OBJECT_ID": "63672", "TLE_LINE1": "1 63672U 25085J   26203.94396147  .00191326  00000-0  14545-2 0  9993", "TLE_LINE2": "2 63672  42.9993 183.1605 0002044 228.0543 132.0151 15.70937096 71514"}, {"OBJECT_NAME": "0 STARLINK-11634", "OBJECT_ID": "63673", "TLE_LINE1": "1 63673U 25085K   26203.93865440  .00169862  00000-0  12963-2 0  9992", "TLE_LINE2": "2 63673  43.0003 183.1199 0002325 230.5536 129.5126 15.70915028 71513"}, {"OBJECT_NAME": "0 STARLINK-11656", "OBJECT_ID": "63674", "TLE_LINE1": "1 63674U 25085L   26203.29751007  .00173581  00000-0  13268-2 0  9997", "TLE_LINE2": "2 63674  43.0010 186.9087 0001772 261.5864  98.4803 15.70864874 71419"}, {"OBJECT_NAME": "0 STARLINK-11655", "OBJECT_ID": "63675", "TLE_LINE1": "1 63675U 25085M   26203.92803728  .00214972  00000-0  16329-2 0  9997", "TLE_LINE2": "2 63675  43.0001 183.0352 0001062 250.3072 109.7681 15.70882756 71512"}, {"OBJECT_NAME": "0 STARLINK-11661", "OBJECT_ID": "63676", "TLE_LINE1": "1 63676U 25085N   26203.66840266  .00183540  00000-0  14015-2 0  9993", "TLE_LINE2": "2 63676  43.0005 184.5237 0000575  51.3382 308.7537 15.70856410 72123"}, {"OBJECT_NAME": "0 STARLINK-33816", "OBJECT_ID": "63677", "TLE_LINE1": "1 63677U 25085P   26203.81343673  .00014216  00000-0  52481-3 0  9994", "TLE_LINE2": "2 63677  43.0006 347.9552 0001645 273.7756  86.2907 15.27599278 69633"}, {"OBJECT_NAME": "0 STARLINK-33861", "OBJECT_ID": "63678", "TLE_LINE1": "1 63678U 25085Q   26203.68780604  .00023297  00000-0  85299-3 0  9991", "TLE_LINE2": "2 63678  43.0004 348.7374 0001433 280.3319  79.7371 15.27597789 69500"}, {"OBJECT_NAME": "0 STARLINK-33850", "OBJECT_ID": "63679", "TLE_LINE1": "1 63679U 25085R   26203.73393389  .00002230  00000-0  90616-4 0  9992", "TLE_LINE2": "2 63679  43.0043 348.2173 0001972 273.6635  86.3991 15.27551216 69518"}, {"OBJECT_NAME": "0 STARLINK-33887", "OBJECT_ID": "63680", "TLE_LINE1": "1 63680U 25085S   26203.70307361  .00024492  00000-0  89613-3 0  9994", "TLE_LINE2": "2 63680  43.0046 347.9836 0001795 267.8405  92.2241 15.27596448 69585"}, {"OBJECT_NAME": "0 STARLINK-33886", "OBJECT_ID": "63681", "TLE_LINE1": "1 63681U 25085T   26203.76460533  .00014469  00000-0  53412-3 0  9993", "TLE_LINE2": "2 63681  43.0024 347.5856 0001415 274.2536  85.8154 15.27590581 69534"}, {"OBJECT_NAME": "0 STARLINK-33840", "OBJECT_ID": "63682", "TLE_LINE1": "1 63682U 25085U   26203.74933449  .00022501  00000-0  82398-3 0  9994", "TLE_LINE2": "2 63682  43.0009 348.3322 0001837 266.5329  93.5312 15.27608821 69525"}, {"OBJECT_NAME": "0 STARLINK-33851", "OBJECT_ID": "63683", "TLE_LINE1": "1 63683U 25085V   26120.27563351  .14593743  90075-5  30206-2 0  9994", "TLE_LINE2": "2 63683  42.9930  89.4991 0006839 193.3251 166.7459 16.30020710 56879"}, {"OBJECT_NAME": "0 STARLINK-33853", "OBJECT_ID": "63684", "TLE_LINE1": "1 63684U 25085W   26203.77745182  .00023095  00000-0  84551-3 0  9996", "TLE_LINE2": "2 63684  43.0018 347.6832 0001872 256.7429 103.3214 15.27604775 69532"}]